STARLINK-5124           
1 54011U 22125AZ  26068.64248706 -.00000792  00000+0 -31710-4 0  9997
2 54011  53.2173 204.4838 0001259  85.7158 274.3978 15.08838270189598
YAM-8                   
1 63254U 25052AW  26068.73092778  .00007810  00000+0  47267-3 0  9993
2 63254  97.7023 329.5345 0002369 152.6796 207.4558 15.10898938 54245
